NORAD_CAT_ID,EPOCH,MEAN_MOTION,ECCENTRICITY,INCLINATION,RA_OF_ASC_NODE,ARG_OF_PERICENTER,MEAN_ANOMALY,SEMIMAJOR_AXIS,PERIOD,APOGEE,PERIGEE
21401,11/15/2019 10:14,4.51447789,0.5650786,64.6067,112.0193,192.4466,143.9521,15464.296,318.973,17824.703,347.618
3422,11/15/2019 10:17,9.83573724,0.1805338,65.0318,46.5798,358.2383,1.2654,9201.611,146.404,4484.678,1162.274
58420,11/15/2019 10:20,0.99017896,0.0004573,4.2146,70.358,260.3156,99.4751,42519.946,1454.282,36161.256,36122.367
12483,11/15/2019 10:22,0.9924951,0.0007161,19.4511,119.5401,158.4902,203.0392,42453.769,1450.888,36106.035,36045.233
63464,11/15/2019 10:28,2.27368894,0.7150077,6.5666,259.3054,270.5675,238.0987,24429.494,633.332,35518.635,584.082
25304,11/15/2019 10:29,3.23422984,0.6622136,20.2864,189.8261,16.3103,357.5907,19314.697,445.237,25727.018,146.107
42833,11/15/2019 10:31,14.79989136,0.0138699,86.3964,91.6235,346.1423,13.6004,7007.495,97.298,726.553,532.167
21558,11/15/2019 10:37,4.91573003,0.551677,5.7901,93.1004,154.8549,247.5212,14610.883,292.937,16293.237,172.26
35157,11/15/2019 10:42,3.31300985,0.651722,4.0476,183.2718,32.683,354.6359,19007.282,434.65,25016.611,241.683
69021,11/15/2019 10:42,1.00271568,0.0001451,0.0129,281.6509,303.0284,135.3382,42164.792,1436.1,35792.775,35780.539
14501,11/15/2019 10:45,1.98385865,0.7558481,61.6993,85.5288,278.9502,10.3692,26754.367,725.858,40598.47,153.994
52230,11/15/2019 10:52,0.97136983,0.0130708,5.7836,297.4251,127.6614,233.4892,43067.08,1482.442,37251.866,36126.024
762,11/15/2019 10:55,2.03447416,0.5504894,68.9341,183.7349,99.373,323.805,26308.76,707.799,34413.319,5447.931
61280,11/15/2019 10:58,1.00268484,8.27E-05,0.0066,287.026,302.1666,130.8002,42165.657,1436.144,35791.009,35784.035
87726,11/15/2019 11:00,2.39545009,0.7089995,8.1166,302.5741,26.851,356.7307,23594.48,601.139,33944.82,487.87
4800,11/15/2019 11:04,14.56378888,0.0021194,98.2184,256.4926,232.7434,127.1822,7083.027,98.875,719.904,689.88
63348,11/15/2019 11:06,1.0027267,0.0005725,4.9583,65.1093,171.5464,48.8913,42164.483,1436.084,35810.488,35762.209
44206,11/15/2019 11:11,7.63645443,0.3958984,2.3903,115.0375,199.3632,139.9064,10892.828,188.569,8827.146,202.24
65168,11/15/2019 11:12,2.54122787,0.7091578,22.3167,221.243,211.8574,72.7587,22683.292,566.655,32391.192,219.123
45866,11/15/2019 11:14,1.00168478,0.0014513,11.5162,314.4946,4.5883,359.1999,42193.717,1437.577,35876.818,35754.346
99201,11/15/2019 11:20,1.0031369,0.0020264,12.8676,325.9471,332.7399,41.0987,42152.988,1435.496,35860.272,35689.434
57631,11/15/2019 11:21,2.27834168,0.7110346,8.5561,171.9967,280.3127,327.6583,24396.223,632.038,35364.647,671.529
55542,11/15/2019 11:26,5.71529003,0.4946372,51.9979,23.4402,233.142,70.6596,13214.264,251.955,13372.396,299.862
47015,11/15/2019 11:27,2.66683545,0.6879504,9.1167,108.1213,5.5421,359.1741,21965.328,539.965,30698.249,476.136
93917,11/15/2019 11:28,4.73558023,0.5596665,6.2922,290.3224,291.9934,19.0503,14979.122,304.081,16984.3,217.674
2748,11/15/2019 11:31,7.20431062,0.4204066,2.8324,160.1838,286.2759,32.4195,11324.183,199.88,9706.809,185.286
32255,11/15/2019 11:31,3.46545952,0.639402,4.1921,82.1012,118.0723,319.568,18445.677,415.529,23861.746,273.339
8333,11/15/2019 11:36,15.019143,0,97.635,182.603,0,323.253,6939.130783,95.878,560.993783,560.993783
36829,11/15/2019 11:39,15.019143,0,97.747,79.731,0,224.661,6939.130783,95.878,560.993783,560.993783
10970,11/15/2019 11:42,15.019143,0,97.635,182.607,0,81.753,6939.130783,95.878,560.993783,560.993783
50315,11/15/2019 11:42,1.95555245,0.7303137,16.3538,329.4472,3.5028,22.0301,27011.924,736.364,40360.968,906.611
78586,11/15/2019 11:46,4.23963275,0.5933513,6.5,319.8226,296.3039,15.3466,16125.617,339.652,19315.638,179.326
64735,11/15/2019 11:48,3.46520601,0.6442319,24.0115,174.6175,136.8566,297.2269,18446.577,415.559,23952.316,184.568
79335,11/15/2019 11:49,0.9903775,0.0003731,7.2292,50.4767,268.1122,91.7418,42514.263,1453.991,36151.991,36120.266
83471,11/15/2019 11:49,15.019143,0,97.747,79.738,0,46.161,6939.130783,95.878,560.993783,560.993783
21061,11/15/2019 11:50,15.019143,0,97.744,105.459,0,53.388,6939.130783,95.878,560.993783,560.993783
87461,11/15/2019 11:51,0.96673063,0.0021324,14.3197,321.9554,297.3907,62.3659,43204.752,1489.556,36918.747,36734.487
53489,11/15/2019 11:52,12.83340386,0.0230355,82.4384,322.9347,26.4675,334.7985,7706.205,112.207,1505.587,1150.554
24468,11/15/2019 11:53,15.019143,0,97.682,156.9,0,47.566,6939.130783,95.878,560.993783,560.993783
91660,11/15/2019 11:54,15.56370779,0.0054488,28.8429,32.8015,233.7611,125.7954,6776.307,92.522,435.095,361.25
74906,11/15/2019 11:55,15.019143,0,97.747,79.742,0,116.661,6939.130783,95.878,560.993783,560.993783
92080,11/15/2019 11:56,12.13898487,0.0690751,99.5802,303.6247,102.4836,18.3731,7997.365,118.626,2171.648,1066.811
38228,11/15/2019 11:57,5.8126159,0.483126,51.7473,121.8479,137.211,272.7695,13066.344,247.736,13000.899,375.518
50646,11/15/2019 12:03,3.10473093,0.6503169,49.1933,177.3172,154.7785,261.2483,19848.111,463.808,26377.539,562.414
12214,11/15/2019 12:05,1.71974832,0.380479,2.1271,348.2428,193.4529,152.0869,29427.853,837.331,34246.398,11853.037
15632,11/15/2019 12:05,15.019143,0,97.635,182.623,0,120.003,6939.130783,95.878,560.993783,560.993783
26807,11/15/2019 12:05,1.00268448,0.0002286,0.0184,266.5494,300.2753,153.1635,42165.667,1436.144,35797.171,35777.893
39812,11/15/2019 12:05,0.99136843,0.0012321,13.4896,329.6868,298.2374,237.4606,42485.928,1452.537,36160.14,36055.447
49060,11/15/2019 12:05,1.01012203,0.0006029,12.0557,320.7467,343.5885,201.159,41958.434,1425.57,35605.596,35555.003
79359,11/15/2019 12:05,15.019143,0,97.588,208.336,0,27.419,6939.130783,95.878,560.993783,560.993783
90389,11/15/2019 12:05,0.98912404,0.0004717,13.274,324.8283,327.6831,215.8861,42550.173,1455.833,36192.109,36151.967
48669,11/15/2019 12:06,1.00407607,0.0082684,12.4311,320.2309,191.8734,359.725,42126.699,1434.154,36096.884,35400.243
74562,11/15/2019 12:06,15.019143,0,97.721,131.19,0,284.86,6939.130783,95.878,560.993783,560.993783
90745,11/15/2019 12:06,2.46518621,0.7125566,1.9908,206.9466,301.265,8.3034,23147.389,584.134,33263.079,275.429
95025,11/15/2019 12:06,14.34216757,0.000235,86.3952,103.0767,82.7438,277.4025,7155.807,100.403,779.354,775.99
16224,11/15/2019 12:07,15.019143,0,97.728,54.03,0,182.188,6939.130783,95.878,560.993783,560.993783
84558,11/15/2019 12:07,1.01232098,0.0011111,13.1708,334.0824,183.4496,356.7755,41897.651,1422.473,35566.069,35472.964
87337,11/15/2019 12:07,15.019143,0,97.721,131.191,0,72.61,6939.130783,95.878,560.993783,560.993783
2533,11/15/2019 12:10,0.98658626,0.0030093,15.1155,353.9846,66.7189,104.2347,42623.109,1459.578,36373.24,36116.709
79646,11/15/2019 12:10,0.98742784,0.0019186,13.0324,339.8414,208.0446,336.1024,42598.888,1458.334,36302.483,36139.022
33960,11/15/2019 12:12,15.019143,0,97.744,105.475,0,303.888,6939.130783,95.878,560.993783,560.993783
78295,11/15/2019 12:13,14.51089486,0.0025855,86.3854,61.4021,272.2054,87.619,7100.229,99.235,740.451,703.736
60085,11/15/2019 12:14,15.019143,0,97.721,131.196,0,146.86,6939.130783,95.878,560.993783,560.993783
46729,11/15/2019 12:15,15.019143,0,97.728,54.036,0,308.188,6939.130783,95.878,560.993783,560.993783
56926,11/15/2019 12:15,1.00137802,0.0015767,14.8703,10.2374,294.2922,238.173,42202.334,1438.018,35890.739,35757.658
99277,11/15/2019 12:16,15.019143,0,97.744,105.477,0,222.888,6939.130783,95.878,560.993783,560.993783
76374,11/15/2019 12:18,4.5783111,0.5720961,54.8815,271.0427,244.8546,46.7315,15320.219,314.526,17706.721,177.446
50450,11/15/2019 12:19,15.019143,0,97.747,79.759,0,302.661,6939.130783,95.878,560.993783,560.993783
34562,11/15/2019 12:21,5.20544441,0.511564,51.7101,103.2475,256.0645,49.5462,14063.604,276.633,14879.902,491.035
65215,11/15/2019 12:22,15.019143,0,97.747,79.761,0,121.911,6939.130783,95.878,560.993783,560.993783
82167,11/15/2019 12:23,15.019143,0,97.721,131.202,0,156.61,6939.130783,95.878,560.993783,560.993783
87951,11/15/2019 12:23,2.0261177,0.6220459,64.7539,241.8256,46.9085,350.6362,26381.049,710.718,36413.137,3592.69
45105,11/15/2019 12:25,15.019143,0,97.747,79.763,0,277.161,6939.130783,95.878,560.993783,560.993783
72643,11/15/2019 12:25,15.019143,0,97.635,182.637,0,99.003,6939.130783,95.878,560.993783,560.993783
74866,11/15/2019 12:26,15.019143,0,97.635,182.637,0,54.753,6939.130783,95.878,560.993783,560.993783
65817,11/15/2019 12:27,15.019143,0,97.747,79.764,0,164.661,6939.130783,95.878,560.993783,560.993783
64766,11/15/2019 12:29,2.02086175,0.6483798,64.4385,216.6186,43.9009,2.0594,26426.771,712.567,37183.22,2914.051
96564,11/15/2019 12:29,15.019143,0,97.747,79.765,0,220.161,6939.130783,95.878,560.993783,560.993783
28586,11/15/2019 12:32,2.15548604,0.6942841,6.8315,38.0267,290.8957,170.6065,25314.636,668.062,36512.051,1360.951
45431,11/15/2019 12:32,4.48710301,0.5524035,3.5422,258.1024,261.5931,35.5017,15527.128,320.919,17726.233,571.753
60468,11/15/2019 12:33,2.0465539,0.5935383,67.702,356.5362,77.9238,339.4279,26205.133,703.621,35380.749,4273.248
38967,11/15/2019 12:34,15.019143,0,97.635,182.643,0,252.753,6939.130783,95.878,560.993783,560.993783
79606,11/15/2019 12:34,13.883672,0.050796,97.722,128.951,74.665,108.033,7312.495469,103.719,1305.802051,562.914887
85993,11/15/2019 12:34,3.11499961,0.6511376,49.1479,147.8314,190.3989,143.5116,19804.467,462.279,26321.766,530.899
44093,11/15/2019 12:39,15.019143,0,97.635,182.646,0,319.503,6939.130783,95.878,560.993783,560.993783
95609,11/15/2019 12:39,15.019143,0,97.588,208.359,0,130.919,6939.130783,95.878,560.993783,560.993783
20737,11/15/2019 12:41,0.99198311,0.0013142,6.3393,57.3235,193.822,166.0234,42468.376,1451.637,36146.053,36034.429
60283,11/15/2019 12:41,15.019143,0,97.588,208.36,0,330.419,6939.130783,95.878,560.993783,560.993783
46555,11/15/2019 12:45,1.05680402,0.0292393,2.1694,91.163,87.9378,275.2669,40713.54,1362.598,35525.84,33144.97
98870,11/15/2019 12:45,0.99967454,0.0008785,10.6674,310.1944,321.5516,197.0226,42250.263,1440.468,35909.245,35835.011
